{
  "type": "FeatureCollection",
  "features": [
    {
      "type": "Feature",
      "properties": {
        "OBJECT_NAME": "DEIMOS-2",
        "OBJECT_ID": "2014-033D",
        "EPOCH": "2025-11-29T21:54:01.575072",
        "MEAN_MOTION": 14.92880072,
        "ECCENTRICITY": 7.71e-05,
        "INCLINATION": 97.6074,
        "RA_OF_ASC_NODE": 210.1354,
        "ARG_OF_PERICENTER": 69.574,
        "MEAN_ANOMALY": 290.5562,
        "EPHEMERIS_TYPE": 0,
        "CLASSIFICATION_TYPE": "U",
        "NORAD_CAT_ID": 40013,
        "ELEMENT_SET_NO": 999,
        "REV_AT_EPOCH": 60798,
        "BSTAR": 0.0001763,
        "MEAN_MOTION_DOT": 1.773e-05,
        "MEAN_MOTION_DDOT": 0,
        "norad_id": 40013,
        "name": "DEIMOS-2",
        "group": "resource",
        "longitude_deg": NaN,
        "latitude_deg": NaN,
        "alt_km": NaN,
        "orbit_class": "HEO",
        "timestamp": "2025-11-30T04:58:49.602695+00:00"
      },
      "geometry": {
        "type": "Point",
        "coordinates": [
          NaN,
          NaN
        ]
      }
    },
    {
      "type": "Feature",
      "properties": {
        "OBJECT_NAME": "HODOYOSHI-3",
        "OBJECT_ID": "2014-033F",
        "EPOCH": "2025-11-29T06:41:37.931136",
        "MEAN_MOTION": 14.84732244,
        "ECCENTRICITY": 0.00319722,
        "INCLINATION": 97.6197,
        "RA_OF_ASC_NODE": 139.6998,
        "ARG_OF_PERICENTER": 294.0809,
        "MEAN_ANOMALY": 65.7062,
        "EPHEMERIS_TYPE": 0,
        "CLASSIFICATION_TYPE": "U",
        "NORAD_CAT_ID": 40015,
        "ELEMENT_SET_NO": 999,
        "REV_AT_EPOCH": 61795,
        "BSTAR": 0.00023238407,
        "MEAN_MOTION_DOT": 1.934e-05,
        "MEAN_MOTION_DDOT": 0,
        "norad_id": 40015,
        "name": "HODOYOSHI-3",
        "group": "resource",
        "longitude_deg": NaN,
        "latitude_deg": NaN,
        "alt_km": NaN,
        "orbit_class": "HEO",
        "timestamp": "2025-11-30T04:58:49.602709+00:00"
      },
      "geometry": {
        "type": "Point",
        "coordinates": [
          NaN,
          NaN
        ]
      }
    },
    {
      "type": "Feature",
      "properties": {
        "OBJECT_NAME": "SPOT 7",
        "OBJECT_ID": "2014-034A",
        "EPOCH": "2025-11-29T20:44:01.451616",
        "MEAN_MOTION": 14.60706928,
        "ECCENTRICITY": 0.0001496,
        "INCLINATION": 98.0923,
        "RA_OF_ASC_NODE": 36.2352,
        "ARG_OF_PERICENTER": 98.798,
        "MEAN_ANOMALY": 261.3391,
        "EPHEMERIS_TYPE": 0,
        "CLASSIFICATION_TYPE": "U",
        "NORAD_CAT_ID": 40053,
        "ELEMENT_SET_NO": 999,
        "REV_AT_EPOCH": 60803,
        "BSTAR": 0.00012625,
        "MEAN_MOTION_DOT": 5.7e-06,
        "MEAN_MOTION_DDOT": 0,
        "norad_id": 40053,
        "name": "SPOT 7",
        "group": "resource",
        "longitude_deg": NaN,
        "latitude_deg": NaN,
        "alt_km": NaN,
        "orbit_class": "HEO",
        "timestamp": "2025-11-30T04:58:49.602816+00:00"
      },
      "geometry": {
        "type": "Point",
        "coordinates": [
          NaN,
          NaN
        ]
      }
    },
    {
      "type": "Feature",
      "properties": {
        "OBJECT_NAME": "SKYSAT-B",
        "OBJECT_ID": "2014-037D",
        "EPOCH": "2025-11-29T20:05:01.146048",
        "MEAN_MOTION": 14.8724907,
        "ECCENTRICITY": 0.0005087,
        "INCLINATION": 98.3588,
        "RA_OF_ASC_NODE": 276.864,
        "ARG_OF_PERICENTER": 190.8347,
        "MEAN_ANOMALY": 169.2759,
        "EPHEMERIS_TYPE": 0,
        "CLASSIFICATION_TYPE": "U",
        "NORAD_CAT_ID": 40072,
        "ELEMENT_SET_NO": 999,
        "REV_AT_EPOCH": 61632,
        "BSTAR": 0.00019058,
        "MEAN_MOTION_DOT": 1.657e-05,
        "MEAN_MOTION_DDOT": 0,
        "norad_id": 40072,
        "name": "SKYSAT-B",
        "group": "resource",
        "longitude_deg": NaN,
        "latitude_deg": NaN,
        "alt_km": NaN,
        "orbit_class": "HEO",
        "timestamp": "2025-11-30T04:58:49.602870+00:00"
      },
      "geometry": {
        "type": "Point",
        "coordinates": [
          NaN,
          NaN
        ]
      }
    },
    {
      "type": "Feature",
      "properties": {
        "OBJECT_NAME": "WORLDVIEW-3 (WV-3)",
        "OBJECT_ID": "2014-048A",
        "EPOCH": "2025-11-29T18:34:45.455808",
        "MEAN_MOTION": 14.85458476,
        "ECCENTRICITY": 0.0003897,
        "INCLINATION": 97.863,
        "RA_OF_ASC_NODE": 46.217,
        "ARG_OF_PERICENTER": 233.2566,
        "MEAN_ANOMALY": 126.8291,
        "EPHEMERIS_TYPE": 0,
        "CLASSIFICATION_TYPE": "U",
        "NORAD_CAT_ID": 40115,
        "ELEMENT_SET_NO": 999,
        "REV_AT_EPOCH": 61231,
        "BSTAR": 0.00014661,
        "MEAN_MOTION_DOT": 1.211e-05,
        "MEAN_MOTION_DDOT": 0,
        "norad_id": 40115,
        "name": "WORLDVIEW-3 (WV-3)",
        "group": "resource",
        "longitude_deg": NaN,
        "latitude_deg": NaN,
        "alt_km": NaN,
        "orbit_class": "HEO",
        "timestamp": "2025-11-30T04:58:49.602960+00:00"
      },
      "geometry": {
        "type": "Point",
        "coordinates": [
          NaN,
          NaN
        ]
      }
    },
    {
      "type": "Feature",
      "properties": {
        "OBJECT_NAME": "GAOFEN-2",
        "OBJECT_ID": "2014-049A",
        "EPOCH": "2025-11-29T19:59:50.019648",
        "MEAN_MOTION": 14.80571973,
        "ECCENTRICITY": 0.0008,
        "INCLINATION": 98.0403,
        "RA_OF_ASC_NODE": 32.9783,
        "ARG_OF_PERICENTER": 150.305,
        "MEAN_ANOMALY": 209.8617,
        "EPHEMERIS_TYPE": 0,
        "CLASSIFICATION_TYPE": "U",
        "NORAD_CAT_ID": 40118,
        "ELEMENT_SET_NO": 999,
        "REV_AT_EPOCH": 60973,
        "BSTAR": 0.00010919,
        "MEAN_MOTION_DOT": 7.84e-06,
        "MEAN_MOTION_DDOT": 0,
        "norad_id": 40118,
        "name": "GAOFEN-2",
        "group": "resource",
        "longitude_deg": NaN,
        "latitude_deg": NaN,
        "alt_km": NaN,
        "orbit_class": "HEO",
        "timestamp": "2025-11-30T04:58:49.602966+00:00"
      },
      "geometry": {
        "type": "Point",
        "coordinates": [
          NaN,
          NaN
        ]
      }
    },
    {
      "type": "Feature",
      "properties": {
        "OBJECT_NAME": "YAOGAN-21",
        "OBJECT_ID": "2014-053A",
        "EPOCH": "2025-11-29T20:59:58.856928",
        "MEAN_MOTION": 15.23419182,
        "ECCENTRICITY": 0.0010352,
        "INCLINATION": 97.1782,
        "RA_OF_ASC_NODE": 17.748,
        "ARG_OF_PERICENTER": 80.4993,
        "MEAN_ANOMALY": 279.7414,
        "EPHEMERIS_TYPE": 0,
        "CLASSIFICATION_TYPE": "U",
        "NORAD_CAT_ID": 40143,
        "ELEMENT_SET_NO": 999,
        "REV_AT_EPOCH": 62458,
        "BSTAR": 0.0003127,
        "MEAN_MOTION_DOT": 7.389e-05,
        "MEAN_MOTION_DDOT": 0,
        "norad_id": 40143,
        "name": "YAOGAN-21",
        "group": "resource",
        "longitude_deg": NaN,
        "latitude_deg": NaN,
        "alt_km": NaN,
        "orbit_class": "HEO",
        "timestamp": "2025-11-30T04:58:49.603027+00:00"
      },
      "geometry": {
        "type": "Point",
        "coordinates": [
          NaN,
          NaN
        ]
      }
    },
    {
      "type": "Feature",
      "properties": {
        "OBJECT_NAME": "YAOGAN-22",
        "OBJECT_ID": "2014-063A",
        "EPOCH": "2025-11-29T15:03:05.027328",
        "MEAN_MOTION": 13.15521942,
        "ECCENTRICITY": 0.0005838,
        "INCLINATION": 100.7415,
        "RA_OF_ASC_NODE": 116.862,
        "ARG_OF_PERICENTER": 279.8494,
        "MEAN_ANOMALY": 80.1958,
        "EPHEMERIS_TYPE": 0,
        "CLASSIFICATION_TYPE": "U",
        "NORAD_CAT_ID": 40275,
        "ELEMENT_SET_NO": 999,
        "REV_AT_EPOCH": 53357,
        "BSTAR": 8.6906e-05,
        "MEAN_MOTION_DOT": -1.4e-07,
        "MEAN_MOTION_DDOT": 0,
        "norad_id": 40275,
        "name": "YAOGAN-22",
        "group": "resource",
        "longitude_deg": NaN,
        "latitude_deg": NaN,
        "alt_km": NaN,
        "orbit_class": "HEO",
        "timestamp": "2025-11-30T04:58:49.603087+00:00"
      },
      "geometry": {
        "type": "Point",
        "coordinates": [
          NaN,
          NaN
        ]
      }
    },
    {
      "type": "Feature",
      "properties": {
        "OBJECT_NAME": "ASNARO",
        "OBJECT_ID": "2014-070A",
        "EPOCH": "2025-11-29T21:32:03.581952",
        "MEAN_MOTION": 15.19738272,
        "ECCENTRICITY": 0.0006876,
        "INCLINATION": 97.3667,
        "RA_OF_ASC_NODE": 50.1583,
        "ARG_OF_PERICENTER": 138.5563,
        "MEAN_ANOMALY": 221.6195,
        "EPHEMERIS_TYPE": 0,
        "CLASSIFICATION_TYPE": "U",
        "NORAD_CAT_ID": 40298,
        "ELEMENT_SET_NO": 999,
        "REV_AT_EPOCH": 61374,
        "BSTAR": 0.00054126,
        "MEAN_MOTION_DOT": 0.00011518,
        "MEAN_MOTION_DDOT": 0,
        "norad_id": 40298,
        "name": "ASNARO",
        "group": "resource",
        "longitude_deg": NaN,
        "latitude_deg": NaN,
        "alt_km": NaN,
        "orbit_class": "HEO",
        "timestamp": "2025-11-30T04:58:49.603134+00:00"
      },
      "geometry": {
        "type": "Point",
        "coordinates": [
          NaN,
          NaN
        ]
      }
    }
  ]
}